InstitutionID,StreetTown,InstitutionName,BedCount,OperationYearMonth,Address,PhoneNumber,PostalCode,OperationMode,LegalRepresentative
200001,陆家嘴,上海琻锦颐养院有限公司,248,20010703,东环龙路299号,68682401,199912,民建民营（工商）,徐而进
200002,陆家嘴,上海浦东新区陆家嘴敬老院,93,199912,崂山二村48号,58876896,200120,公建公营,瞿文
200003,潍坊,上海浦东新区潍坊敬老院,170,199908,潍坊六村627号,58202777,200120,公建公营,朱文霞
200004,塘桥,上海浦东新区塘桥敬老院外设服务区,28,199908,蓝村路60弄38号甲,58392859,200127,公建公营,张金红
200005,洋泾,上海浦东新区金枫敬老院,70,200003,张杨路1734弄21号,68535391,200135,民建民营（民非）,戎煜
200006,洋泾,上海浦东新区歇浦敬老院,44,199908,浦东大道1615弄8号,58858203,200135,民建民营（民非）,欧阳雪梅
200007,花木,上海浦东新区花木敬老院,78,199908,玉兰路58号,68452975,201204,公建公营,陈华节
200008,花木,上海市浦东新区花木社区街道广洋养老院,142,199908,灵山路2011弄59号,50757159,200136,公建公营,王晓英
200009,花木,上海浦东新区申东颐养院,180,200607,严桥路306号,50890306,200125,民建民营（民非）,占桂兰
200010,金杨,上海市浦东新区金杨新村街道灵山养老院,75,199908,灵山路2011弄29号,50768761,200136,公建公营,丁  燕
200011,金杨,上海浦东新区金杨第二敬老院,135,200106,上海浦东新区龙居路180弄20号（甲）,58520957,200136,公建公营,郑菊琴
200012,金杨,上海罗山养老院,50,199908,博山东路40弄30号,58608242,200136,民建民营（民非）,申利民
200013,金杨,上海浦东新区美馨敬老院,80,199908,金杨路660弄23号,50755222,200135,民建民营（民非）,曾丽馨
200014,金杨,上海春馨养护院,150,201212,浦东大道2507号,50273890,200136,民建民营（民非）,陈春良
200015,金杨,上海浦东新区安达锦阳敬老院,88,201406,枣庄路658弄11号,50716322,200136,民建民营（民非）,何敏
200016,沪东,上海浦东新区沪东社区敬老院,68,199908,柳埠路142弄48号,58507411,200129,公建公营,沈美娥
200017,沪东,上海浦东新区沪东社区朱家门敬老院,115,200804,浦东大道2970弄31号,50382074,200129,公建公营,刘来龙
200018,浦兴,上海浦东新区浦兴敬老院,140,199912,博兴路1208号,68956907,200126,公建公营,郭萍
200019,浦兴,上海浦东新区证大家园敬老院,100,201407,巨峰路209号,50682531,200129,公建公营,夏芳
200020,南码头,上海市浦东新区南码头路街道南园养老院,103,199908,浦三路628弄18号,50779884,200125,公建公营,汤和芬
200021,南码头,上海市浦东新区南码头路街道南风养老院,80,200812,东三里桥路160弄22号,58816184,200125,公建公营,汤和芬
200022,南码头,上海机电养老院,240,200001,杨高南路2068号,58739865,200125,民建民营（民非）,左山虎
200023,南码头,上海浦东新区民众敬老院,280,200512,浦三路741弄22号,50771286,200125,民建民营（民非）,柏蓉
200024,南码头,上海浦东市南养老院,191,200811,西三里桥路6号,58892115,200125,民建民营（民非）,梁红
200025,周家渡,上海市浦东新区周家渡街道昌里养老院,126,200703,昌里东路80弄61号,58457010,200126,公建民营,吴海萍
200026,周家渡,上海市退休职工服务中心浦东公寓,110,199908,齐河路10弄2号,58746613,200126,公建公营,奚杰
200027,上钢,上海市浦东新区上钢新村街道德州养老院,80,201108,德州路255弄56号,33938908,200126,公建公营,王丽玲
200028,上钢,上海市浦东新区上钢新村街道耀华养老院,75,201208,耀华路550弄2号,58476531,200126,公建公营,潘伟红
200029,上钢,上海秀英养老院,63,200511,德州路380弄30号,58456891,200126,民建民营（民非）,杨鸣芳
200030,东明,上海市浦东新区东明路街道永泰养老院,93,200104,永泰路1129弄96号,50562790,200213,公建民营,龚毅
200031,东明,上海市浦东新区东明路街道世博家园养老院,200,200707,东泰林路158号,50658622,200124,公建民营,严海滨
200032,东明,上海春天家园老年公寓,175,200702,上南路4276号,51380299,200124,民建民营（民非）,徐全娟
200033,南汇新城,上海秋胜养老院,330,200305,泥城镇千祥村兴隆九组,58071912,201306,民建民营（民非）,黄晓天
200034,金桥,上海市浦东新区金桥镇张桥养护院,139,199908,佳林路82弄161号,58549557,201206,公建公营,蔡文霞
200035,金桥,上海市浦东新区金桥镇申江养护院,252,201012,浦东新区申江路2480号,58993688,201206,公建公营,顾杰人
200036,金桥,上海浦东新区金桥利群敬老院,70,200509,王家桥孙家浜58号,58342707,201206,民建民营（民非）,林作用
200037,曹路,上海市浦东新区曹路镇龚路养护院,120,199908,曹路镇曙星路南首,58563106,201209,公建公营,赵文福
200038,曹路,上海市浦东新区曹路镇顾路养护院,145,199908,曹路镇顾东村吴家宅8号,58630900,201209,公建公营,刘兰英
200039,曹路,上海曹路期颐老年公寓,250,200602,曹路镇杨东路6号,58632886,201209,公建民营,董国忠
200040,曹路,上海正华养老院,155,200407,川沙路1188号,58561117,201209,民建民营（民非）,姜惠兴
200041,高桥,上海浦东新区高桥幸福敬老院,80,200610,高桥镇学后街39号,50412511,200137,公建公营,辛燕丽
200042,高桥,上海浦东新区高桥吉祥敬老院,250,200610,欧高路382号,58677838,200137,公建公营,辛燕丽
200043,高桥,上海浦东新区高桥如意敬老院,72,200610,张家路49号,58643221,200137,公建公营,辛燕丽
200044,高桥,上海浦东新区金色港湾老年公寓,250,200907,溪兰路125号,58674065,200137,民建民营（民非）,谢荣娣
200045,高东,上海浦东新区高东福利院,305,201111,镇南路116号,20250776,201208,公建公营,金惠珠
200046,高行,上海市浦东新区高行镇万安养老院,500,200902,新行路306号,68689981,201208,公建公营,王莉馨
200047,张江,上海市浦东新区张江镇孙桥养老院,250,199908,横沔江路264号,58570405,201210,公建公营,吴霞芳
200048,张江,上海市浦东新区张江镇顺和养老院,69,200910,顺和路139弄5号,50724484,201210,公建公营,吴霞芳
200049,张江,上海光启养老院,175,200212,居里路469号,58556131,201203,民建民营（民非）,徐圣洁
200050,张江,上海洪天养老院,100,201604,张江镇橫沔江路501号,50199113,201203,民建民营（民非）,彭天明
200051,唐镇,上海浦东新区新唐镇敬老院,727,200609,创新中路73号,58967148,201210,公建公营,蒋华义
200052,合庆,上海浦东新区合庆敬老院,260,200407,青暮路281号,68901803,201201,民建民营（民非）,张文祥
200053,合庆,上海青墩养老院,280,200507,青暮路1348号,68910655,201201,民建民营（民非）,张慧根
200054,合庆,上海浦东新区爱心养老公寓,370,200608,奚阳路885,68919958,201201,民建民营（民非）,彭天明
200055,三林,上海市浦东新区三林镇常青养老院,225,201701,永泰路302弄16号,50824588,200124,公建公营,陆伟红
200056,三林,上海浦东新区康德敬老院,50,199908,恒大路65号,58429858,200126,民建民营（民非）,张德荣
200057,三林,上海浦东新区积孝敬老院,133,200207,杨高南路4501弄79号,50851606,200124,民建民营（民非）,袁孝萍
200058,三林,上海汇亲园养护院,140,200708,上南路5128号,50827077,200124,民建民营（民非）,徐扣凤
200059,三林,上海浦东新区日月星养老院,301,201012,浦东新区顾全路100号,61348880,200135,民建民营（民非）,苏剑青
200060,北蔡,上海市浦东新区北蔡镇莲溪养护院,196,199911,北中路575号,50910633,201204,公建公营,赵文蓉
200061,北蔡,上海安达养护院,195,200605,莲园路359号,50421225,201204,民建民营（民非）,何敏
200062,北蔡,上海凯健华鹏老年服务有限公司（上海凯健华鹏养老院有限公司）,78,201412,华鹏路96号,68387000,201204,民建民营（工商）,YUNZHI SMITH
200063,北蔡,上海万福年华养老院,89,501604,沪南公路865号,60348699,201204,民建民营（民非）,刘泽民
200064,惠南,上海市浦东新区惠南镇黄路养老院,82,199906,黄路文卫路51号,58270892,201301,公建公营,顾建华
200065,惠南,上海市浦东新区惠南镇惠乐养老院,138,201008,川南奉公路6168号,58270892,201301,公建公营,顾建华
200066,惠南,上海市浦东新区惠南镇惠颐养护院,250,201003,南祝路2700号,58098999,201324,公建民营,沈小萍
200067,惠南,上海心悦养老院,115,200404,南门路70号,58011019,201399,民建民营（民非）,黄娅青
200068,新场,上海市浦东新区新场镇石笋养老院,127,199911,新环南路288号,58171209,201314,公建公营,周志凤
200069,新场,上海市浦东新区新场镇坦直养老院,119,199904,下盐路89号,68151264,201314,公建公营,周志凤
200070,大团,上海浦东新区大团敬老院,120,199903,永春东路16号,58081889,201311,公建公营,徐才明
200071,大团,上海浦东新区永春福利院,150,200611,永春东路18号,58086248,201311,民建民营（民非）,王晓君
200072,大团,上海能益养老院,276,200305,大团镇扶栏村下塘458号,58231307,201312,民建民营（民非）,王建龙
200073,大团,上海公谊养护院,256,200510,大团镇团新村10组,68235315,20012,民建民营（民非）,丁美凤
200074,周浦,上海市浦东新区周浦镇长乐养护院,525,199902,康沈路2186号,58113050,201318,公建公营,顾耀红
200075,周浦,上海松福养护院,148,199903,周祝公路1529号,58151522,201321,民建民营（民非）,钱正彬
200076,周浦,上海民乐养护院,101,199904,周东路508弄108号,68118654,201318,民建民营（民非）,张云飞
200077,康桥,上海浦东新区康桥镇敬老院,112,199904,横沔新镇拯安路55号,58131673,201319,公建公营,张国荣
200078,康桥,上海亲和源颐养院,200,200809,秀沿路2999弄10号楼,38256162,201319,民建民营（民非）,奚志勇
200079,康桥,上海亲和源老年公寓,548,200801,浦东秀沿路2999弄,38256001,201319,民建民营（民非）,奚志勇
200080,康桥,上海航馨养护院,380,199905,航南公路501号,58229011,201316,民建民营（民非）,陆明
200081,康桥,上海浦东新区航头镇下沙敬老院,426,199905,沪南公路4845号,58148888,201317,民建民营（民非）,杨正权
200082,康桥,上海浦东新区大中养老院,120,199910,航头下沙新街200弄85号,58146849,201413,民建民营（民非）,刘玉琴
200083,康桥,上海浦东新区沈庄绿园敬老院,70,199908,沈庄街44号,58143345,201317,民建民营（民非）,王林珠
200084,康桥,上海浦东新区航头阳光养老院,186,200704,航头镇航南路101号,68221299,201316,民建民营（民非）,严尧新
200085,康桥,上海香柏养老院,75,200608,下盐路1018号,58140730,201317,民建民营（民非）,颜鸿斌
200086,康桥,上海白金养老院,246,200707,下沙新街103,58145775,201317,民建民营（民非）,滕世瑞
200087,宣桥,上海浦东新区三灶敬老院,281,199905,下盐公路54号（三灶北街）,58036059,201300,公建公营,夏桂明
200088,宣桥,上海金龙养护院,127,200505,宣桥镇光明村金光2组,13918627772,201399,民建民营（民非）,沈小妹
200089,泥城,上海仁爱养护院,271,199902,马五公路351号,58241976,201307,民建民营（民非）,林文娟
200090,泥城,上海明家养护院,324,200310,彭平东路1103弄76号,58241194,201307,民建民营（民非）,高明华
200091,泥城,上海建国养护院,122,200509,泥城镇龙港村535号,13641780741,201306,民建民营（民非）,潘建国
200092,泥城,上海春雷养护院,200,200710,泥城彭镇艺华路1号,58241785,201307,民建民营（民非）,何春雷
200093,书院,上海市浦东新区书院镇馨苑养老院,120,199902,老芦公路1412号,58061105,201305,公建公营,瞿美丽
200094,书院,上海佳家乐养老院,145,200607,书塘路888号,58064388,201305,民建民营（民非）,朱正芳
200095,书院,上海邻港养护院,300,201107,老芦公路1423号,58069799,201305,民建民营（民非）,黄飞
200096,书院,上海机电颐和养老院,100,200706,三三公路5020弄9号,58292383,201303,民建民营（民非）,左山虎
200097,万祥,上海市浦东新区万祥镇乐龄养老院,50,199905,万祥镇果园村669号,58046345,201313,公建公营,乔迎春
200098,老港,上海浦东新区老港敬老院,128,199904,老港镇牛肚村1012-1号,58051276,201302,公建公营,朱龙花
200099,老港,上海龙港养护院,130,201403,老芦公路398号（港北）,68291079,201302,民建民营（民非）,马龙德
200100,祝桥,上海浦东新区祝桥敬老院,348,199902,川南奉公路5347号,68261831,201325,公建公营,潘进龙
200101,祝桥,上海浦东新区机场第一敬老院,200,199908,新东路5号,58931109,201202,公建公营,陆丽君
200102,祝桥,上海浦东新区机场第二敬老院,418,199908,水闸南路200号,68966766,201202,公建公营,邱银花
200103,祝桥,上海市浦东新区祝桥镇光明养护院,330,200704,南祝公路5212号,68098121,201323,公建民营,姚舟琦
200104,祝桥,上海康颐养护院,70,200407,星火村12组,58096176,201324,民建民营（民非）,周红莲
200105,祝桥,上海浦东新区海欣托老所,50,200701,祝桥镇先进村九组156号,68266971,201325,民建民营（民非）,傅新梅
200106,祝桥,上海浦东新区福林颐养院,125,200710,祝桥镇金家宅38号,68781215,201202,民建民营（民非）,王炳福
200107,川沙新镇,上海浦东新区川沙第一敬老院,112,199908,新川路东门街1弄1号,58983710,201299,公建公营,姚敏
200108,川沙新镇,上海浦东新区川沙第二敬老院,158,199908,川黄路一号桥东首,68650157,201299,公建公营,周峰
200109,川沙新镇,上海浦东新区川沙六团敬老院,100,199908,川沙镇六团德兴街55号,58590580,201202,公建公营,顾伟慧
200110,川沙新镇,上海浦东新区川沙新镇福利院,303,200905,德川路469号,58372521,201299,公建公营,张怡
200111,川沙新镇,上海浦东新区六灶敬老院,60,199905,周祝公路2490弄27号,58162525,201322,公建公营,龚雅飞
200112,川沙新镇,上海慈爱敬老院,190,200806,川沙镇十一墩街46-2号,38681700,201299,民建民营（民非）,吴永骏
200113,川沙新镇,上海浦东新区万鑫全养老院,56,200701,川沙路5413弄68号,58923959,201299,民建民营（民非）,周维钢
200114,川沙新镇,上海浦东新区会龙养老院,80,200410,六灶会龙存311号,58168377,201322,民建民营（民非）,刘凯
200115,川沙新镇,上海善芯养护院,270,200707,川沙新镇陈桥村888号-1,58167737,201322,民建民营（民非）,陆璐
200116,区级,上海市浦东新区社会福利院,250,199910,川沙路5637号,68580201,201299,公建公营,于明
200117,区级,上海市浦东新区老年特护院,608,201312,明川路258号,68911521,201299,公建公营,于明
200118,洋泾,上海洋泾社区长者照护之家,30,201512,海防新村84号,58361291,200120,公建公营,欧阳雪梅
200119,浦兴,上海浦兴社区福苑长者照护之家,14,201412,长岛路1560弄25号,58358138,200127,公建公营,强小花
200120,陆家嘴,上海陆家嘴社区长者照护之家,32,201612,乳山路130弄21号,50630616,200129,公建公营,瞿  文
200121,老港,上海老港滨海社区长者照护之家,40,201702,滨海社区滨海路10号,58051812,201302,公建公营,倪佳瑛
200122,康健街道,徐汇区社会福利院,180,199611,上海市虹漕南路601号,54186261,200233,公建公营,姜洪英
200123,凌云街道,徐汇区第二社会福利院,312,200108,龙州路600号,54290063,200237,公建公营,李宪军
200124,康健街道,湖南敬老院,66,199803,桂林西街30弄42号,54199447,200233,民建民营（民非）,包勍颀
200125,斜土街道,斜土街道敬老院,70,200301,大木桥路321号,64168928,200032,公建公营,许庆龙
200126,田林街道,田林街道敬老院,90,199609,宜山路655弄8号,64831224,200233,公建民营（民非）,张莉颖
200127,长桥街道,长桥街道第二敬老院,60,198608,长桥四村54号,64103932,200231,公建公营,孙婷
200128,枫林街道,枫林街道敬老院,52,198801,小木桥路440弄22号甲,64167843,200032,公建民营（民非）,姚吉
200129,龙华街道,龙华街道敬老院,85,199912,天钥桥南路1199弄38号,54095337,200232,公建民营（民非）,陈佩明
200130,徐家汇街道,徐家汇街道敬老院,128,200002,凯旋一村21号,64475197,200030,公建公营,赵峰
200131,虹梅街道,虹梅街道敬老院,66,200012,钦州北路900号,64516255,200233,公建民营（民非）,姜进福
200132,漕河泾街道,漕河泾街道敬老院,30,198705,康健路120弄50号,64363809,200235,公建公营,高丽美
200133,漕河泾街道,常青敬老院,60,199801,桂平路350弄30号,64084994,200233,公建公营,俞根娣
200134,华泾镇,永康养老院,70,199801,华发路100弄20-21号,64962525,200231,公建民营（民非）,许剑南
200135,枫林街道,宛贤敬老院,70,199802,中山南二路908号,64641123,200030,民建民营（民非）,俞芳
200136,凌云街道,凌云敬老院,66,199606,梅陇四村84号,64542360,200237,民建民营（民非）,徐雁
200137,徐家汇街道,颐祥养老院,53,200003,斜土路2590弄7号,64391283,200030,民建民营（民非）,张荣康
200138,康健街道,新乐养老院,190,200303,江安路88号,54197284,200233,民建民营（民非）,易春涛
200139,长桥街道,长桥街道敬老院,139,200312,罗城路651弄65号,54112932,200237,公建公营,孙婷
200140,枫林街道,枫林街道第二敬老院,110,200508,龙华路3208弄32号,54121683,200232,公建民营（民非）,蒋跃红
200141,长桥街道,阳光养老院,136,200512,平福路19号,64556813,200231,民建民营（民非）,季冬青
200142,龙华街道,金色港湾龙华颐养院,101,200606,龙南三村85号,54091067,200232,民建民营（民非）,谢荣娣
200143,斜土街道,斜土街道第二敬老院,63,200601,江南一村54号,64181132,200032,公建公营,许庆龙
200144,华泾镇,华泾养老院,80,200611,徐汇区建华路180号,64960088*8009,200231,民建民营（民非）,沈雷
200145,康健街道,康健敬老院,88,200612,桂林西街30弄41号,54187600,200233,公建民营（民非）,范庆芝
200146,虹梅街道,虹梅养老院,80,200709,虹梅路1501号,54481263,200233,民建民营（民非）,吕奇玮
200147,斜土街道,日晖养老院,200,200701,零陵北路2号,64042727*2308,200032,民建民营（民非）,吴克明
200148,田林街道,田林养老院,60,200712,柳州路500号4楼,64751149,200233,民建民营（民非）,陈珮
200149,凌云街道,梅陇敬老院,190,200812,虹梅南路126弄55号,64768188,200237,民建民营（民非）,徐永昌
200150,凌云街道,日月星养老院,268,200911,虹梅南路108号,54303839,200239,民建民营（民非）,林德添
200151,青浦夏阳街道,上海徐汇区馨怡养老院,669,201112,青浦区外青松公路7718号,59718106,201701,民建民营（民非）,杨金根
200152,龙华街道,上海长青藤颐养院,165,201207,华容路85弄8号,51688880,200030,民建民营（民非）,杨炽国
200153,漕河泾街道,上海乐缘养老院,198,201209,宾阳路36号,64151576,200235,公建民营（民非）,包勍颀
200154,漕河泾街道,上海上达天平养老院,324,201308,钦州路107号,64757799,200235,民建民营（民非）,陈波
200155,凌云街道,上海徐汇区兰公馆老年公寓,168,201309,天等路430弄39号,64969195,200237,民建民营（民非）,张莉颖
200156,华泾镇,上海凯健华展老年护理有限公司,70,201107,华展东路33号,54337768,200231,民建民营（工商）,Yunzhi Smith
200157,华泾镇,徐汇区第三老年福利院,222,201410,华发路210号,54555066,200231,公建民营（民非）,柯维忠
200158,华泾镇,源梦颐养院,108,201412,龙吴路2577号,54413727,200231,民建民营（民非）,杨嵘
200159,闵行区虹桥镇街道,长宁区社会福利院,120,199010,闵行区红松路81弄158号,34310539,201103,公建公营,周天赤
200160,闵行区新虹街道,上海市长宁区第二社会福利院,124,200803,闵行区华漕镇中华美路60弄38-40号,62202062,201106,公建公营,蔡粉娣
200161,华阳街道,上海华阳敬老院,123,198709,长宁路396弄79号,62258022,200042,公建公营,施卫平
200162,华阳街道,上海华阳敬老院外设服务区,49,198609,昭化路615弄277号,62526876,200050,公建公营,施卫平
200163,华阳街道,上海颐养第一敬老院,83,200911,愚园路1355弄8号,62134094,200050,民建民营,顾慧萍
200164,江苏街道,上海长宁区逸仙第三敬老院,490,201008,安西路651号,32560068,200050,民建民营,冯强
200165,江苏街道,上海金福第二养老院,163,201008,愚园路1088弄110支弄22号,62125056,200050,民建民营,徐兵
200166,江苏街道,上海长宁区康逸敬老院,39,201405,镇宁路405弄73号甲,52669383,200050,民建民营,唐中贵
200167,天山街道,上海天山敬老院,50,199210,玉屏南路113弄29号,62598142,200051,公建公营,王玉萍
200168,天山街道,上海金福养老院,122,200911,玉屏南路571号,62592208,200050,民建民营,徐兵
200169,天山街道,逸仙天山敬老院,37,201612,玉屏南路373号,62458500,null,民建民营,冯强
200170,新华街道,上海法华颐养院,100,200510,延安西路1652弄33号,51180268,200052,民建民营,顾鹏飞
200171,仙霞街道,上海市颐养敬老院,50,199606,茅台路460弄30号,62598488,200336,民建民营,顾慧萍
200172,仙霞街道,上海颐养第二敬老院,80,201312,茅台路455弄8号,52834776,200336,民建民营,顾慧萍
200173,仙霞街道,上海仙霞社区逸仙敬老院,50,200402,芙蓉江路100弄1号,62595905,200336,公建民营,冯强
200174,仙霞街道,上海长宁区逸仙第二敬老院,372,200708,长宁区茅台路616号,62916355,200336,民建民营,冯强
200175,虹桥街道,上海虹桥敬老院,85,200507,中山西路1030弄10号,62754244,200051,公建公营,朱秀君
200176,虹桥街道,上海市长宁爱晚亭敬老院,50,200006,虹桥路1035号,62780801,200051,民建民营,顾毓青
200177,程家桥街道,上海长宁区逸仙程桥敬老院,132,201005,哈密路2008号,62629147,200336,民建民营,冯强
200178,北新泾街道,上海广慈敬老院,60,200709,平塘路201号,52185617,200335,民建民营,林移芳
200179,新泾镇,上海市长宁区新泾敬老院,60,200412,剑河路599弄85号,52201734,200335,公建公营,袁惠琴
200180,新泾镇,上海华松敬老院,118,200510,仙霞西路700弄63号,62397552,200335,民建民营,楼毅栋
200181,新泾镇,上海南山敬老院,156,200511,新泾路118号,52198005,200335,民建民营,詹万金
200182,新泾镇,上海神州敬老院,318,200801,仙霞西路601号,51877957,200335,民建民营,郑宇
200183,新泾镇,上海市长宁安馨敬老院,170,200902,长宁区林泉路157号,51119990,200336,民建民营,黄建军
200184,新泾镇,上海市长宁安馨第三敬老院,148,201409,长宁区淞虹路681号,51119980,200335,民建民营,黄建军
200185,新泾镇,上海祥福颐养院,440,201006,协和路99号,52175099-8467,200335,民建民营,蒋佳学
200186,新泾镇,上海西郊协和颐养院,825,201304,协和路295号,62902070,200335,公建民营,冯强
200187,新泾镇,上海金福第三养老院,398,201609,广顺路18号,52689677,200335,民建民营,徐莘博
200188,闵行区莘庄街道,上海喜满楼敬老院,180,200712,中春路5801号,54887821,201199,民建民营,唐咸喜
200189,青浦区金泽镇,上海市长宁安馨第二敬老院,188,201002,青浦区沪青平公路9188号,59262188,201718,民建民营,黄建军
200190,天山街道,上海颐养长者照护之家,38,201602,中山西路800弄13号,62373892,200051,民建民营,顾慧萍
200191,仙霞街道,上海逸仙长者照护之家,32,201602,茅台路270弄7号,62277781,200336,民建民营,冯强
200192,虹桥街道,上海虹桥社区颐养虹南长者照护之家,31,201611,中山西路1432弄36号,32093618,200336,民建民营,顾慧萍
200193,虹桥街道,上海虹桥社区银龄阁长者照护之家,42,200507,长宁区安顺路181弄1-3号,62196165,200251,公建公营,朱秀君
200194,新迳镇,上海新泾社区孝敬长者照护之家,40,201605,仙霞西路700弄43号,62383689,200335,民建民营,孙保珍
200195,临汾路街道,上海静安区社会福利院,317,198802,汾西路217号,56913815,200435,公建公营（事业）,陈苏萌
200196,北站街道,上海静安区北站街道敬老院,50,200004,南星路80号,63532836,200070,公建公营（民非）,陈晨
200197,宝山路街道,上海静安区宝山路街道敬老院,50,200004,止园路400弄7号甲,56620793,200071,公建民营（民非）,王蔚
200198,共和新路街道,上海静安区共和新路街道敬老院,50,200004,柳营路319弄45号甲,56902240,200072,公建公营（民非）,王书琴
200199,彭浦新村街道,上海静安区彭浦新村老年公寓,54,200004,汾西路650弄3号,66837245,200435,公建公营（民非）,马献娣
200200,彭浦新村街道,上海静安区彭浦新村第二老年公寓,130,200601,临汾路1513弄45号,56408443,200443,公建公营（民非）,马献娣
200201,天目西路街道,上海静安区天目西社区敬老院,300,201012,沪太路453弄84号,56985101,200070,公建民营（民非）,刘峰
200202,芷江西路街道,上海静安区东风芷江养老院,150,200001,青云路755号,56722643,200070,民建民营（民非）,张娴
200203,彭浦新村街道,上海静安区教工敬老院,52,200004,彭浦新村322号,56919975,200435,公建公营（事业）,李海霞
200204,彭浦新村街道,上海静安区田泽文华敬老院,146,200107,长临路380弄146号,56404753,200443,民建民营（民非）,文传华
200205,彭浦镇,上海静安区皓馨养老院,60,200506,场中路3332弄1号,56506853,200436,民建民营（民非）,杨坚
200206,临汾路街道,上海静安区馨苑敬老院,80,200506,闻喜路251弄23号,56910176,200435,民建民营（民非）,赵俊
200207,彭浦新村街道,上海静安区沁怡敬老院,100,200506,彭浦新村88号,66822962,200435,民建民营（民非）,倪阿五
200208,临汾路街道,上海静安区一家人家敬老院,100,200507,阳曲路570弄7号,56889588,200435,民建民营（民非）,罗赛菊
200209,临汾路街道,上海静安豪斯达敬老院,80,200510,场中路1177弄22号,66821363,200435,民建民营（民非）,傅时仙
200210,宝山路街道,上海静安之星养老院,142,200608,芷江中路413弄10号,56729778,200071,民建民营（民非）,郑忠铁
200211,芷江西路街道,上海生乐养老院,90,200610,中华新路457号H,56971198,200071,民建民营（民非）,金蕊
200212,彭浦新村街道,上海静安区城建敬老院,62,200711,三泉路524号,56380702,200435,民建民营（民非）,霍年林
200213,大宁街道,上海豪锦粤秀养老院,273,200711,粤秀路5185号,56773167,200072,民建民营（民非）,楼锦豪
200214,彭浦新村街道,上海闸北区彭盛敬老院,59,200712,平顺路28号三楼,56810897,200435,民建民营（民非）,韩玉珍
200215,共和新路街道,上海静安区颐和养老院,241,201105,普善路858弄2号,51601145,200072,民建民营（民非）,肖镛达
200216,彭浦镇,上海静安郁金香颐养园,320,201108,场中路3690号,36395890,200436,民建民营（民非）,周增勇
200217,彭浦新村街道,上海共康养老院,52,201507,三泉路930号,66243937,200443,民建民营（民非）,叶露萍
200218,静安寺街道,上海静安区孙克仁老年福利院,125,200004,延安西路399号,62487149,200040,公建民营（民非）,陈大为
200219,江宁路街道,上海静安老年公寓,60,199509,昌化路430弄5号,62760443,200041,公建民营（民非）,李小华
200220,曹家渡街道,上海静安区曹家渡街道敬老院,50,200106,安远路899弄14-24号,62307960,200042,公建民营（民非）,王立新
200221,石门二路街道,上海静安区蝴蝶湾敬老院,100,201303,石门二路505号,62195613,200041,公建民营（民非）,岑彩君
200222,江宁路街道,上海市静安区乐宁老年福利院,167,201412,武定路661号,62566060,200040,公建民营（民非）,刘柱
200223,曹家渡街道,上海静安区日月星养老院,292,201502,余姚路338号,52752709,200042,公建民营（民非）,谢磊
200224,石门二路街道,上海石二社区福苑长者照护之家,10,201512,新闸路848号2层,62096202,200041,公建民营（民非）,瞿文
200225,静安寺街道,上海静安寺社区富民长者照护之家,24,200805,富民路22弄10号,62498338,200040,民建民营(民非）,李敏
200226,曹家渡街道,上海静安区曹家渡爱华养老院,120,200610,胶州路485号,62157096,200042,民建民营(民非）,张爱华
200227,普陀区,上海静安区金康敬老院,80,200709,真南路635弄99支弄105号,36331250,200331,民建民营(民非）,殷祖泽
200228,江宁路街道,上海静安区江宁颐美敬老院,140,200804,西苏州路33号,62586947,200041,民建民营(民非）,钟玉美
200229,青浦区,上海新开元颐养院,300,201110,盈港东路8000弄249号,39858799,201700,民建民营(民非）,李鸿吉
200230,曹家渡街道,上海市静安区恒裕曹家渡老年福利院,499,201611,万航渡路767弄43号,62307522,200042,公建民营（民非）,聂建明
200232,临汾路街道,上海和养临汾养护院,321,201606,汾西路360号,36601366,200435,公建民营（民非）,胡平
200233,彭浦镇,上海和养宝华养护院,340,201611,江场西路1200号,56208166,200070,公建民营（民非）,俞锋
200234,彭浦镇,上海和养彭浦养护院,405,201612,江场西路1655号,66057916,200436,公建民营（民非）,俞锋
200235,大宁路街道,上海静安区大宁路社区长者照护之家,29,201611,粤秀北路1472号,66520799,200072,公建民营（民非）,冯建芬
200236,临汾路街道,上海临汾社区爱照护长者照护之家,37,201612,阳曲路391弄16号,36600007,200435,公建民营（民非）,虞晓莹
200237,天目西路街道,上海天目西社区长者照护之家,10,201704,长安路500号,32180706,200070,公建民营（民非）,刘峰
200238,共和新路街道,上海共和新社区长者照护之家,18,201707,柳营路319弄29号甲,56628968,200072,公建民营（民非）,梁苏琴
200239,曲阳街道,上海虹口区建阳养老院,180,200908,中山北二路2199号,65161590,200083,民建民营（民非）,王雪英
200240,凉城新村街道,上海虹口区凉城新村街道敬老院,50,199407,凉城路574号,"65298467
*0803",200434,"公建
民营",华小兰
200241,江湾镇街道,上海虹口区吉阳红敬老院,204,200903,纪念路335弄10-12号,61670788,200434,民建民营（民非）,陈昀
200242,广中街道,上海虹口区红日家园老年公寓,200,201204,株洲路307弄1号,56408900,200083,民建民营（民非）,陈琦
200243,江湾镇街道,上海市虹口区博慈河滨敬老院,100,201102,新市南路1104号,65360690,200434,民建民营（民非）,应向荣
200244,江湾镇街道,上海虹口区广济养老院,150,200305,纪念路500号,65619720,200434,民建民营（民非）,林力
200245,四川北路街道,上海虹口区四川北路街道敬老院   ,50,199507,溧阳路1084弄28号,56713564,200081,公建民营,张荣新
200246,凉城新村街道,上海虹口区申虹敬老院,91,200806,凉城路854号,65286173,200434,民建民营（民非）,魏天星
200247,曲阳街道,上海虹口区瑞信养老院,134,200804,赤峰路600弄18号,65602323,200083,民建民营（民非）,董海燕
200248,广中街道,上海虹口区福民敬老院,50,200405,中山北一路131弄一支弄16号,56900338,200081,民建民营（民非）,徐珉华
200249,江湾镇街道,上海虹口区银康老年公寓,462,201204,场中路685弄98号,65980567,200434,民建民营（民非）,汪晓鸣
200250,江湾镇街道,上海市虹口江湾镇敬老院,120,200405,场中路769号,66820187,200434,公建民营,陈凌空
200251,江湾镇街道,上海虹口区爱峰敬老院,110,199811,万安路669弄14号,65605156,200434,民建民营（民非）,周祥云
200252,江湾镇街道 ,上海虹口区凉城复馨敬老院,400,200704,丰镇路788号,65267336,200434,民建民营（民非）,杨嵘
200253,嘉兴路街道,上海虹口区嘉兴路街道敬老院,60,200903,物华路11号,33777352,200086,"公建
民营",王云娣
200254,曲阳街道,上海虹口区曲阳路街道敬老院,63,199711,巴林路60弄28号,65548978,200437,公建民营,朱行妹
200255,广中街道,上海虹口区民建大铭敬老院,53,199908,广中支路24弄13号,56904974,200083,民建民营（民非）,杨金妹
200256,江湾镇街道,上海虹口区广中路街道敬老院,82,200307,新市南路488弄15号,65610785,200434,"公建
民营",詹烨君
200257,江湾镇街道,上海虹口区为民敬老院,107,200510,虹口区三门路759弄49号,65166335,200439,民建民营（民非）,杨金妹
200258,江湾镇街道,上海虹口区蓝鹰敬老院,112,201006,三门路726号,65165756,200439,民建民营（民非）,韩海卫
200259,提篮桥街道,上虹口区乍浦路街道敬老院,21,198604,峨眉路366弄13号,63252412,200080,"公建
民营",王嘉华
200260,四川北路街道,上海虹叶养老院,250,201409,溧阳路1084弄28号,56719977,200081,公建民营,张荣新
200261,欧阳街道,上海虹口区祥云敬老院,140,201209,四达路109号,65086722,200080,民建民营（民非）,苗成
200262,提篮桥街道,上海虹口区鸿荣敬老院,80,200610,东余杭路1023号,65121757,200082,民建民营（民非）,周卫
200263,欧阳街道,上海虹口区欧祥养老院,60,200101,欧阳路175号,56668849,200081,民建民营（民非）,刘林娣
200264,提篮桥街道,上海市虹口区北外滩敬老院,120,200908,唐山路145号,65370688,200080,民建民营（民非）,狄德才
200265,曲阳街道,上海市虹口区社福利院,200,198712,密云路623号,65553137,200437,公建公营,余爱梅
200266,广中路街道,上海市虹口区银龄知音养老院,212,201404,北宝兴路611号,"56382832
56382982",200083,民建民营（民非）,吴军
200267,凉城街道,上海海江养护院,77,201411,车站北路709号,55831132,200433,民建民营（民非）,林瑞琪
200268,曲阳街道,上海天成养老院,153,201501,赤峰路404弄31号,55886216,200083,民建民营（民非）,刘红菊
200269,四川北路街道,上海虹德养老院,120,201510,中州路66号,63567922,200080,民建民营（民非）,狄敏达
200270,欧阳路街道,祥德敬老院,100,201412,祥德路302号?,65556350,200081,民建民营（民非）,苗成
200271,凉城街道,海江瑞祥,75,201608,保宁路44号,55271772,200433,民建民营（民非）,林瑞棋
200272,曲阳街道,兰公馆养老院,392,201612,中山北一路903号,63309850,200083,公建民营,张莉颖
200273,凉城街道,奎照老年福利院,148,201704,奎照路840号,65012760,200434,公建民营,徐诚
200274,提篮桥街道,临潼路养老机构,129,201702,临潼路191号,65853109,200080,公建民营,陈婕妤
200275,嘉兴街道,天宝养老机构,440,201702,天宝路881号,65794261,200086,公建民营,陆珺
200276,欧阳街道,蒋家桥长者照护之家,39,201512,蒋家桥路15号甲,56372352,200080,公建民营,高洪
200277,江湾镇街道,爱照护长者照护之家,20,201611,场中路32弄10号,13641705665,200333,民建民营（民非）,虞晓莹
200278,嘉兴路街道,新港路长者照护之家,18,201611,大连路975弄46-47号,55580292,200086,公建民营,陆珺
200279,莘庄镇（区级）,上海市闵行区社会福利院,779,198712,闵行区七莘路700号,64923910,201199,公建公营,陈方
200280,颛桥镇（区级）,上海闵行区君莲养老院,498,201409,闵行区沪光路225号,64912266,201108,公建公营,罗勤辉
200281,七宝镇（区级）,上海闵行区中谊福利院,723,200907,闵行区中谊路955号1号楼,54889450,201101,公建民营(民非）,陈晖
200282,古美路街道（区级）,上海闵行区莲花老年公寓,187,200609,闵行区莲花路1115号,34226575,201102,公建民营(民非）,罗惠国
200283,浦江镇,上海闵行区浦江镇鲁汇敬老院,92,198709,闵行区浦江镇鲁汇教师新村37号,64911027,201112,公建公营,卫兰
200284,浦江镇,上海闵行区一家人敬老院,519,201305,闵行区召楼路2926号,34793100,201112,公建民营(民非）,钱家民
200285,浦江镇,上海闵行区夕阳东起敬老院,128,201011,闵行区苏召路1086号,64112226,201112,民建民营（民非）,孟爱芳
200286,浦江镇,上海闵行区晨星敬老院,56,201112,闵行区沿浦路15号（丰南河桥南）,64918691,201112,民建民营（民非）,张雨仙
200287,浦江镇,上海申堡养老院有限公司,335,201603,闵行区联航路1505弄4-5号楼,4008833551,201112,民建民营（工商）,Lilly Ho Donohue
200288,吴泾镇,上海闵行区吴泾镇敬老院,99,199203,闵行区剑川路100弄139号,64520174,200241,公建民营(民非）,朱洪其
200289,吴泾镇,上海闵行区亲情安养院,192,200508,闵行区剑川路50弄28号,64523563,200241,民建民营（民非）,张琳
200290,吴泾镇,上海闵行区夕阳红养老院,100,200902,闵行区剑川路50弄200号,64503885,200241,民建民营（民非）,蒋定君
200291,马桥镇,上海闵行区马桥镇敬老院,550,198405,闵行区元松路15号,64092616,201111,公建公营,赵伟忠
200292,马桥镇,上海闵行区紫江敬老院,81,201010,闵行区北松路818号,64093266,201111,民建民营（民非）,楼乐华
200293,颛桥镇,上海闵行区颛桥敬老院,158,200508,闵行区颛桥镇联农路39号,64422475,201108,公建公营,曹永其
200294,颛桥镇,上海闵行区银桥万福年华社区长者照护之家,45,201502,闵行区沪闵路3131弄36号,54415935,201109,公建民营(民非）,刘泽民
200295,颛桥镇,上海闵行区福禄寿敬老院,320,199504,闵行区瓶北路38号,64901045,201109,民建民营（民非）,吴凤美
200296,颛桥镇,上海大华福利院,290,199909,闵行区中春路2626号,64896890,201108,民建民营（民非）,吴桂明
200297,颛桥镇,上海闵行区爱德养老院,181,199107,闵行区沪闵路1774号C座南门,64907361,201108,民建民营（民非）,李峥
200298,梅陇镇,上海市闵行区梅陇颐乐养老院,498,201505,闵行区双柏路1333弄58号,52217891,201108,公建民营(民非）,蔡坚
200299,梅陇镇,上海闵行区虹梅敬老院,200,199908,闵行区景联路1109号,64973228,201103,公建民营(民非）,张世伟
200300,梅陇镇,上海闵行区陇南敬老院,189,201502,闵行区虹梅南路768号,54573258,200237,公建民营(民非）,樊大荣
200301,梅陇镇,上海闵行区梅陇社区爱照护长者照护之家,11,201605,闵行区上中西路762号,54321507,200237,公建民营(民非）,虞晓莹
200302,梅陇镇,上海闵行区豪锦梅陇养老公寓,267,201206,闵行区银都路1696弄7号,54403198,201108,民建民营（民非）,俞伟帼
200303,梅陇镇,上海闵行区陇西养老院,51,199701,闵行区梅陇西路960号（罗阳七村北大门）,34083566,201104,民建民营（民非）,俞顺兴
200304,莘庄镇,上海闵行区莘庄镇敬老院,550,200910,闵行区莘西路66号,64983655,201199,公建公营,陆建新
200305,莘庄镇,上海闵行区康城敬老院,151,201205,闵行区莘松路958弄大浪湾道66-67号,64930775,201199,公建民营(民非）,凌志英
200306,莘庄镇,上海南张安老院,80,198912,闵行区秀文路485弄50号 ,54136950,210199,民建民营（民非）,吴高生
200307,七宝镇,上海闵行区七宝镇华爱长者照护之家,49,201606,闵行区宜山路2271号,54435961,201108,民建民营（民非）,徐清
200308,七宝镇,上海闵行区七宝镇万科城市花园社区智汇坊长者照护之家,38,201611,闵行区中春路8888弄82号,34903366,201101,民建民营（民非）,严栋
200309,虹桥镇,上海闵行区虹桥镇敬老院,605,199310,闵行区环镇南路120号,64063939,201103,公建公营,姚红
200310,虹桥镇,上海闵行区虹桥镇龙柏敬老院,72,199810,闵行区龙柏七村104号,34313038,201103,公建公营,丁兰儒
200311,华漕镇,上海闵行区华漕镇敬老院,293,198509,闵行区繁兴路461号,62212615,201107,公建公营,陶青
200312,华漕镇,上海闵行区继王敬老院,229,200903,闵行区纪翟路2780号,52968668,201107,民建民营（民非）,孙惠珍
200313,江川路街道,上海闵行区江川路街道华坪敬老院,52,198610,闵行区兰坪路131弄13号,54703863,200240,公建公营,王征雄
200314,江川路街道,上海闵行区江川路街道碧江敬老院,50,199209,闵行区碧江路280弄17号甲,64626633,200240,公建公营,王征雄
200315,江川路街道,上海闵行区扩伦福利院,293,200607,闵行区江川路1565弄10、12号,34098564,201111,民建民营（民非）,唐伟荣
200316,江川路街道,上海闵行区华哈养老院   ,250,200808,闵行区昆阳路168号,51103856,201111,民建民营（民非）,郑科
200317,江川路街道,上海恩光敬老院,132,199909,闵行区凤庆路1058号,64635483,200240,民建民营（民非）,沈学彬
200318,江川路街道,上海闵行区红旗敬老院,60,200609,闵行区碧江路501弄67号,54751118,200240,民建民营（民非）,黄张辉
200319,古美路街道,上海闵行区平阳敬老院,200,200812,闵行区平阳路1225号,34174387,201102,公建民营(民非）,俞炳荣
200320,古美路街道,上海闵行区古美敬老院,95,200007,闵行区虹莘路2288弄135号,54162838,201101,公建民营(民非）,钱家民
200321,古美路街道,上海闵行区古美社区智汇坊长者照护之家,18,201605,闵行区平阳路1526号,33583223,201102,公建民营（民非）,严栋
200322,古美路街道,上海闵行区古美社区诚和敬长者照护之家,12,201612,闵行区平吉路528号,54415020,201102,公建民营(民非）,张帅一
200323,新虹街道,上海闵行区新虹敬老院,197,201105,闵行区润虹路798号,34662056,201107,公建公营,朱文燕
200324,浦锦街道,上海闵行区世柏敬老院,67,201307,闵行区南江燕路409号,20922999,201114,公建民营(民非）,杨正权
200325,莘庄工业区,上海闵行区莘庄工业区敬老院,290,201110,闵行区联农路588号,52961911,201108,公建公营,张文刚
200326,莘庄工业区,上海闵行莘庄工业区社区爱照护长者照护之家,16,201603,闵行区瓶北路467号,,200237,公建民营(民非）,虞晓莹
200327,长兴镇,上海市宝山区社会福利院,200,197904,"
长兴镇潘圆公路1666号",56851473,201913,公建公营,陆明
200328,友谊,上海宝山区康乐敬老院,150,198511,宝林八村128号,56100726,201999,民建民营（民非）,潘马发
200329,友谊,上海宝康老年公寓,255,200303,宝山十村106号,56120350,201999,民建民营（民非）,黄安冲
200330,吴淞,上海宝山区海滨新村街道敬老院,160,200408,永清二村122号,56566635,200940,公建民营(民非）,郑培琳
200331,吴淞,上海宝山区永清养老院,93,199901,永清新村76号,56167148,200940,民建民营（民非）,王素珍
200332,吴淞,上海宝山区吴淞街道敬老院,170,199201,同济路2号,56841011,200940,公建公营 ,金建英
200333,吴淞,上海同泰敬老院,245,201612,同泰北路183号,56172183,200941,民建民营（民非）,苗成
200334,吴淞,上海宝山区逸仙养老院,421,201703,塘后支路19-21号,56562778,200942,民建民营（民非）,冯强
200335,张庙,上海宝山区通河新村街道敬老院,72,199911,长江西路通河二村40号,56749563,200431,公建民营(民非）,卞桂芳
200336,张庙,上海宝山区新康安养院,190,200510,呼玛四村27号,66229687,200431,民建民营（民非）,俞巨龙
200337,张庙,上海宝山区泗塘承苗养老院,97,200206,虎林路泗塘五村128号,66212973,200431,民建民营（民非）,李景改
200338,张庙,上海张庙养老院,154,201610,长江西路1181号,56121365,200431,公建民营(民非）,沈超
200339,庙行,上海宝山区庙行镇敬老院,140,201401,长江西路2700号,66989910,200443,公建公营(民非）,季永成
200340,大场,上海宝山区大场镇敬老院,140,199812,环镇北路600弄158号,66509830,200436,公建公营,朱步青
200341,大场,上海宝山区大场镇祁连敬老院,96,199410,锦秋路2088号,56131503,200444,公建公营,范志强
200342,大场,上海宝山区德照敬老院,171,200603,沪太路3651号,51609188,200444,民建民营（民非）,许小凤
200343,大场,上海星堡老年服务有限公司,408,201404,环镇南路858弄5号楼,31001500-80108,200436,民建民营（工商）,Lilly Ho Donohue
200344,大场,上海宝山区金悦养老院,288,201604,祁真路485号,36589951,200444,公建民营（民非）,秦雨胜
200345,大场,上海大场长乐养老院,326,201507,少年村路218号,66610336,200436,民建民营（民非),刘洪法
200346,高境,上海宝山区高境镇养老院,430,201208,何家湾路99弄9号,55040277,200439,公建民营（民非）,秦雨胜
200347,淞南,上海美庭阳光养老院,284,201602,长江南路970号,36589188,200441,民建民营（民非）,周知
200348,顾村,上海宝山区顾村镇敬老院,203,200406,沪太路5129弄10号,56020482,201907,公建公营,王敏娟
200349,顾村,上海顾村和平养老院,188,201603,陆翔路688弄1-33号,66028550,201907,民建民营,丁和斌
200350,顾村,上海宝山区顾村镇馨佳园养老院,131,201705,潘广路1645号,36210632,201908,公建民营（民非）,胡霞敏
200351,杨行,上海宝山杨行镇金秋晨曦老年公寓,1430,200104,盘古路1911号,36417219,201901,公建公营,陆铮
200352,杨行,上海宝山区杨行镇宝山敬老院,230,199505,漠河路1100弄1号,36216217,201999,公建民营（民非）,陈秀娟
200353,杨行,上海宝山区海剑敬老院,220,200704,泰和路1155号,33795030,200940,民建民营(民非）,吴海剑
200354,杨行,上海宝山区百姓敬老院,396,200709,杨宗路308号,33852677,201901,民建民营(民非）,金清浩
200355,杨行,上海宝山勤丰家乐养老院,142,200912,盘古路715弄9号,66785088,201900,民建民营（民非）,刘挺浩
200356,月浦,上海宝山区月浦乐业养老院,65,200401,春雷路332弄2号,56932568,200941,民建民营（民非）,王凤莉
200357,月浦,上海宝山区月浦镇怡康敬老院,58,200601,盛桥一村28号,56159598,200942,民建民营（民非）,王凤莉
200358,月浦,上海宝山区金色晚年敬老院,503,201403,月罗公路新镇车站南首,56931631,200941,民建民营（民非）,潘马发
200359,罗店,上海金罗敬老院,120,200309,罗店镇罗东路779号,66865652,201908,民建民营（民非）,严云龙
200360,罗店,上海宝山罗福养老院,215,200508,罗店镇东西巷街79弄26号,56864175,201908,民建民营（民非）,徐幼妹
200361,罗店,上海西埝敬老院,110,200508,沪太路6289弄88号,66012905,201908,民建民营（民非）,蔡美萍
200362,罗店,上海宝山美兰金苑养老院,850,200912,沪太路6273弄50号,56016351,201908,公建公营,滕玉凤
200363,罗泾,上海宝山区罗泾镇敬老院,110,198402,集宁路179号,56870784,200949,公建公营,陈利英
200364,罗泾,上海罗泾丽康养老院,120,200508,新川沙路503号,56870135,200949,公建公营,陈利英
200365,顾村,上海顾村社区慧享福长者照护之家,38,201703,菊太路1198弄10—1号3楼,56182868,201907,公建民营（民非）,张书荣
200366,马陆镇,上海市嘉定双善养老院,149,200607,上海市嘉定区马陆镇双单路65号,59108221,201801,公建民营  (民非）,王莉娟
200367,马陆镇,上海市退休职工服务中心嘉定公寓,220,199101,上海市嘉定区马陆镇嘉戬公路685号,59518066,201818,公建公营,奚杰
200368,徐行镇,上海市嘉定区徐行镇敬老院,260,200712,上海市嘉定区徐行镇新建一路2115号,59558470,201808,公建公营,顾萍兰
200369,安亭镇,上海市嘉定区安亭镇方泰敬老院,154,199911,上海市嘉定区安亭镇方中路160号,59503437,201814,公建公营,朱红英
200370,真新街道,上海市嘉定区真新街道养老院,192,200301,上海市嘉定区祁连山南路2500号,69182508,201824,公建公营,强凤芬
200371,菊园新区,上海东方老年公寓,350,200512,上海市嘉定区沪宜公路4800号,69968938,201899,民建民营  (民非）,王鲁明
200372,马陆镇,上海市嘉定金马社区福利院,152,201001,上海市嘉定区马陆镇封周路631弄15号,39515055,201801,公建民营  (民非）,张永英
200373,新成路街道,上海颐康家园养老院,1022,201303,上海市嘉定区澄浏中路3000号,59982116,201822,民建民营  (民非）,金卫国
200374,新成路街道,上海市嘉定区新成路街道敬老院,68,199610,上海市嘉定区新成路街道迎园路450号,59993002,201822,"公建
公营",姚忠明
200375,安亭镇,上海市安亭社会福利院,426,200701,上海市嘉定区安亭镇外青松公路10号桥西鸵鸟路,69571982,201805,公建公营,孟瑛
200376,马陆镇,上海市嘉定怡龄养老院,149,201407,上海市嘉定区马陆镇育绿路301弄1号,39900283,201801,公建民营    (民非）,赵静
200377,安亭镇,上海安亭联西敬老院,60,201305,上海市嘉定区安亭镇博园路2868号,69593725,201804,公建民营  (民非）,张建明
200378,南翔镇,上海市嘉定永乐养老院,380,200906,上海市嘉定区南翔镇翔乐路265号,39199365,201802,公建民营  (民非）,王小燕
200379,外冈镇,上海市嘉定区外冈镇敬老院,124,200107,上海市嘉定区外冈镇望新仙桥路231号,59936731,201823,"公建
公营",周健春
200380,外冈镇,上海市嘉定区外冈养老院,499,201706,上海市嘉定区外冈镇祁昌路365号,59588526,201806,公建公营,严晓芳
200381,江桥镇,上海市嘉定区江桥镇封浜敬老院,400,198612,上海市嘉定区江桥镇封浜星华公路2022号,39115296,201812,"公建
公营",徐菊珍
200382,安亭镇,上海市嘉定区安亭镇黄渡敬老院,370,198309,上海市嘉定区安亭镇黄渡新黄路1号,59595715,201804,"公建
公营",肖庆玲
200383,南翔镇,上海市嘉定区第一社会福利院,498,201509,上海市嘉定区嘉好路600号,59928508,201802,"公建
公营",陈俊祎
200384,马陆镇,上海市嘉定区马陆镇福利院,396,200912,上海市嘉定区马陆镇戬浜大治路577弄,59516017,201800,"公建
公营",刘芹
200385,嘉定镇街道,上海市嘉定社会福利院,260,200505,上海市嘉定区嘉定镇街道北大街301号,69992702,201899,公建民营  (民非）,朱雪芬
200386,南翔镇,上海嘉定区南翔镇福利院,400,200106,上海市嘉定区南翔镇众仁路355号,59122576,201802,"公建
公营",刘冰
200387,工业区,上海嘉定区虬桥社会福利院,470,200803,上海市嘉定工业区虬桥路300号,69161201,201821,公建民营  (民非）,管富根
200388,徐行镇,上海嘉定康福敬养院,199,200212,上海市嘉定区徐行镇新建一路2258号,59556228,201808,民建民营  (民非）,徐根明
200389,徐行镇,上海礼爱颐养院,298,201312,上海市嘉定区徐行镇嘉行公路1257号,59552266,201808,民建民营  (民非）,陆惠明
200390,华亭镇,上海市嘉定区华亭敬老院,563,198501,上海市嘉定区华亭镇华谊一路176号,59970181,201811,公建民营  (民非）,周根兴
200391,马陆镇,上海嘉定马陆社区戬浜长者照护之家,28,201602,上海市嘉定区嘉富路500弄356号,59548160,201818,公建民营  (民非）,郁惠丽
200392,马陆镇,上海嘉定马陆社区新联长者照护之家,36,201508,上海市嘉定区复华路55号,59900752,201818,公建民营  (民非）,周莉
200393,安亭镇,上海嘉定安亭社区赵巷长者照护之家,49,201503,上海市嘉定区翔方公路3000号,59503212,201814,公建民营  (民非）,唐林娟
200394,马陆镇,上海嘉定马陆社区彭赵长者照护之家,33,201406,上海市嘉定区丰登路1551弄8号,59900130,201801,公建民营  (民非）,赵强
200395,马陆镇,上海嘉定马陆社区北管长者照护之家,48,201511,上海市嘉定区马陆镇北陈路1286号,69152449,201801,公建民营  (民非）,邵伟梁
200396,马陆镇,上海嘉定马陆社区包桥长者照护之家,48,201510,上海市嘉定区宝安公路2888弄376号,39907876,201801,公建民营  (民非）,赵燕
200397,工业区,上海嘉定工业区社区虬桥长者照护之家,35,201508,上海市嘉定工业区虬桥路300号,69161201,201821,公建民营  (民非）,管富根
200398,枫泾镇,枫泾镇第一敬老院,131,1989.9,枫杰路65号,57351684,201501,公建公营,吴君辉
200399,枫泾镇,上海金山区枫泾镇第二敬老院,128,1989.9,枫泾亭枫公路7038号,57361217,201502,公建公营,沈海红
200400,朱泾镇,上海金山区朱泾镇第一敬老院,106,1996.1,朱泾镇民主村东方红11组,57307697,201599,公建公营,李英
200401,朱泾镇,上海金山区朱泾镇第二敬老院,116,1978.1,朱泾镇浦银路240号,57340379,201503, 公建公营,赵婉梅
200402,朱泾镇,上海安宁养老院,101,2011.9,金山区朱泾镇新农康健路46号,57346600,201599,公建公营,戈金宝
200403,亭林镇,上海金山区亭林镇松隐敬老院,54,2004.4,松隐大街496号,57381091,201504,公建公营,王忠良
200404,亭林镇,上海金山区亭林镇敬老院,101,1984.7,金山区亭林镇桃贤路28号,57233617,201505,公建公营,吴金英
200405,亭林镇,上海金山区亭林镇第二敬老院,88,2016.5,金山区亭林镇大通路14号,67968831,201505,公建公营,王忠良
200406,工业区,上海金山工业区敬老院,175,1985.12,金山工业区高林路128号,57273102,201506,公建公营,沈红珍
200407,漕泾镇,上海金山区漕泾镇敬老院,100,2013.7,金山区漕泾镇中一西路488号,57251338,201507,公建公营,冯梅
200408,山阳镇,上海金山区山阳镇敬老院,362,2008.7,山阳镇山倪路1600号,57241684,201508,公建公营,吴华军
200409,金山卫镇,上海金山区金山卫镇敬老院,247,2004.2,金山卫镇张桥村刘建路2143号,57298868,201515,公建公营,徐慧芳
200410,廊下镇,上海金山区廊下镇敬老院,263,1984.5,廊下镇廊华公路156号,2157391299,201516,公建公营,陈丽红
200411,吕巷镇,上海金山区吕巷镇敬老院,302,2003.7,金山区吕巷镇太平村蒋巷1组4070号,57371549,201517,公建公营,韩爱华
200412,吕巷镇,上海金山区吕巷镇干巷敬老院,122,2014.4,吕巷镇干林路2818号,57206981,201518,公建公营,朱掌林
200413,张堰镇,上海金山区张堰镇敬老院,135,1985.2,张漕公路28号,57203330,201514,公建公营,蔡士远
200414,石化街道,上海金山区石化街道敬老院,60,2003.5,石化十村113号,57936835,200540,公建民营,郭卫锋
200415,区级,上海市金山区社会福利院,181,1995.1,梅州新村84号,57931619,200540,公建公营,李叶芳
200416,区级,上海金山区东林养老院,180,2000.12,朱泾镇东风南路185号,57319341,150099,民建民营,卢国秀
200417,亭林镇,上海金福居敬老院,200,2008.12,上海金山区车亭公路3466号,021-57237111-8001,201505,民建民营,许永春
200418,亭林镇,上海金山区亭林镇松隐养老院,150,2005.2,亭林镇松隐大街456号,57381174,201504,民建民营,鲁增寿
200419,山阳镇,上海金山区山阳镇养老院,152,2007.05,山阳镇向阳西路88号,57241224,201508,民建民营,高振奇
200420,石化街道,上海金山区永乐养老院,150,2008.08,金山区石化施二路55弄2号楼,67221589,200540,民建民营,俞向东
200421,张堰镇,上海张堰老年公寓,130,2007.12,张堰大街199号,57213008,201514,民建民营,郭卫锋
200422,金山卫镇,上海金夕老年公寓,172,2009.02,秦弯路1155弄19号,57291028,201515,民建民营,朱良宝
200423,朱泾镇,上海新农普度养老院,161,2012.02,朱泾镇慧农村5008号,57341163,201503,民建民营,释广德
200424,朱泾镇,上海颐和苑老年服务中心,466,2015.1,上海金山区朱泾镇金石北路7666号,37284268,201599,民建民营,周保云
200425,朱泾镇,上海颐和苑养老中心,392,2015.1,上海金山区朱泾镇金石北路7667号,37284268,201599,民建民营,周保云
200426,吕巷镇,上海鑫阳养老院,136,2017.3,金山区吕巷镇汇丰大街588号,57208699,201518,民建民营,蔡良钊
200427,南桥镇,上海市奉贤区福利院,320,199709,南桥镇古华路119号 ,57191303,201499,公建公营,朱正芳
200428,南桥镇,上海奉贤区南桥镇江海敬老院,252,199701,南桥镇江南路469号,57188525,201499,公建公营,陆菊华
200429,奉浦 街道,上海奉贤区奉浦敬老院,99,199207,奉浦街道陈桥路2388号,57433046,201401,公建公营,陈洁
200430,庄行镇,上海奉贤区庄行镇邬桥敬老院,118,201403,庄行镇渔沥村耀光1433号,57402368,201402,公建公营,吴唯一
200431,青村镇,上海奉贤区青村镇敬老院,260,200410,青村镇北唐村北港387号,57568101,201414,公建公营,俞玉莲
200432,四团镇,上海奉贤区四团镇敬老院,232,198412,四团镇北街100号,57534589,201412,公建公营,瞿建军
200433,奉城镇,上海奉贤区奉城镇头桥敬老院,50,198409,奉城镇新奉公路4942号,57551026,201409,公建公营,周丽英
200434,金汇镇,上海奉贤区金汇镇敬老院,58,199907,金汇镇果多路489号,57575176,201403,公建公营,陆新章
200435,金汇镇,上海奉贤区金汇镇泰日敬老院,110,200511,金汇镇泰青公路501号,57586135,201405,公建公营,陆新章
200436,海湾镇,上海奉贤区海湾镇敬老院,182,201609,海湾镇五四公路1558号,37598090,210422,公建公营,王惠华
200437,庄行镇,上海奉贤区乐慧养老院,357,200407,庄行镇安邬路188号,57404312,201402,民建民营,顾国明
200438,奉城镇,上海奉贤区鸿恩托老所,58,200501,奉城镇洪北村4组,57133069,201411,民建民营,康华
200439,奉城镇,上海奉贤区维丰颐养院,161,200312,奉城镇幸福村一支路58号,18901948800,201409,民建民营,李秀宝
200440,南桥镇,上海奉贤区益人养老院,149,200308,南桥镇光明社区优化路58号,57470800,201406,民建民营,施明
200441,西渡街道,上海市奉贤区永生养老院,100,200401,西渡街道奉金路758号,57430094,201401,民建民营,鲁马良
200442,南桥镇,上海奉贤区南桥镇光明村养老院,150,200604,南桥镇光明社区光钱路195号,57473052,201406,村办,钱国良
200443,庄行镇,上海奉贤区伊甸敬老院,86,200512,庄行镇庄北路301号,57468268,201415,民建民营,何爱明
200444,金汇镇,上海奉贤区泰日光星养老院,96,200404,金汇镇泰日社区光星村551号,57581551,201405,民建民营,白勇
200445,青村镇,上海奉贤区钱桥恩霖托老所,50,200506,青村镇金王村173号,57597691,201407,民建民营,沈梅花
200446,西渡街道,上海奉贤区南桥镇关港养老院,208,200612,西渡街道关港村399号,57481396,201404,民建民营,孙洪敏
200447,南桥镇,上海奉贤区明馨艺术养老院,300,200912,南桥镇金海路2488号,61909190,201406,民建民营,张永道
200448,青村镇,上海奉贤区兰公馆养老院,401,201002,青村镇南奉公路4999号,33616555,201406,民建民营,张亚平
200449,庄行镇,上海奉贤区长远养老院,140,201012,庄行镇邬桥社区邬桥社区安东路58号,57403219,201402,民建民营,俞长仙
200450,金汇镇,上海奉贤区金汇养老院,130,201112,金汇镇金钱公路718号,57480578,201404,民建民营,黄全东
200451,青村镇,上海奉贤区金苹果养老院,160,201308,青村镇南奉公路4146号,31115700,201414,民建民营,吴红镁
200452,庄行镇,上海新华老年公寓,200,201507,庄行镇南亭公路4388号,57467029,201415,民建民营,王秀宝
200453,奉城镇,上海奉贤区瑷佲长者照护之家,40,201611,奉城镇爱民村421号,57529468,201411,村办,蔡林芳
200454,奉城镇,上海奉贤区高桥长者照护之家,49,201610,奉城镇奉旺路659号,37580501,201411,村办,陈传余
200455,新村乡,上海崇明区新村敬老院,78,198405,新村乡新浜村1476号,59651541,202172,公建公营,张敏
200456,绿华镇,上海崇明区绿华敬老院,75,198308,绿华镇新建路894号,59351659,202015,公建公营,密洪生
200457,绿华镇,上海市崇明绿港养老公寓,60,200810,绿华镇绿港村521号,59353377,202015,民建民营(民非),武登扣
200458,三星镇,上海崇明区三星敬老院,179,195802,三星镇协进村496号,59601521,202152,公建公营,张建康
200459,庙镇,上海崇明区合作敬老院,170,199512,庙镇合作公路1318号,59382287,202153,民建民营(民非),徐永德
200460,庙镇,上海崇明庙镇敬老院,180,195912,庙镇民华村624号,69361642,202153,公建公营,杜锐兵
200461,庙镇,上海崇明方顺养老院,140,195810,庙镇宏海公路2568号,59362428,202153,民建民营(民非),方士元
200462,庙镇,上海市崇明江龙老年公寓,190,200310,庙镇宏海路88号,69361001,202153,民建民营(民非),张成刚
200463,庙镇,上海市崇明区庙镇江合养护院,102,201503,庙镇合作公路1293号,59387095,202153,公建民营(民非),陆善卫
200464,港西镇,上海崇明区港西第一敬老院,130,197507,港西镇长生村11队,59670170,202154,公建公营,顾生荣
200465,港西镇,上海崇明协兴养老院,106,200607,港西镇三双公路2005号,59676108,202154,民建民营(民非),蔡云娟
200466,城桥镇,上海崇明区城桥第一敬老院,80,198205,城桥镇油车湾67号,69620765,202150,公建公营,杨雅琴
200467,城桥镇,上海崇明区城桥第二敬老院,70,201604,城桥镇团城公路6380号,59691087,202155,公建公营,周宏娣
200468,城桥镇,上海崇明城桥第三敬老院,186,199907,城桥镇长侯路25号,59691322,202155,公建公营,石惠忠
200469,城桥镇,上海崇明县城桥利民托老院,33,199805,城桥镇利民村,69626078,202150,民建民营(民非),朱全
200470,建设镇,上海崇明区建设敬老院,137,195804,建设镇滧东村红梅312号,59339227,202155,公建公营,倪联东
200471,建设镇,上海崇明区大同敬老院,130,198903,建设镇蟠龙公路1278号,59392128,202155,公建公营,杨建英
200472,新河镇,上海崇明区新民敬老院,132,195708,新河镇强民村137号,59371210,202156,公建公营,黄慧
200473,新河镇,上海崇明县新河敬老院,232,195809,新河镇石路村1158号,59681364,202156,公建公营,陆希达
200474,新河镇,上海崇明县康馨养老院,50,200408,新河镇强民村义化3队338号,59374128,202156,民建民营(民非),黄春燕
200475,竖新镇,上海崇明区大新敬老院,142,195808,竖新镇跃进村新南1367号,59491922,202179,公建民营(民非),顾兰芬
200476,竖新镇,上海崇明区竖河敬老院,154,195805,竖新镇永兴村朱桥211号,59481712,202164,公建公营,顾兰芬
200477,竖新镇,上海崇明嘉龙养老院,275,200611,竖新镇大东村68号,59492207,202179,民建民营(民非),孙朗辰
200478,堡镇,上海崇明县堡镇敬老院,265,198406,堡镇大通路555号,59421247,202157,公建公营,黄娟
200479,堡镇,上海崇明月亮湖老年公寓,145,201507,堡镇大通路388号,59415388,202157,民建民营(民非),倪玉娟
200480,堡镇,上海海科第三福利院,206,201611,堡镇港水闸西首,39661590,202157,民建民营(民非),江仁德
200481,堡镇,上海市崇明逸达敬老院,41,201508,堡镇桃源村568号,59427190,202157,民建民营(民非),宋李花
200482,港沿镇,上海崇明区港沿敬老院,133,195808,港沿公路1101号,59461248,202158,公建公营,沈国涛
200483,港沿镇,上海崇明区合兴敬老院,248,195807,港沿镇同心村1319号,69459861,202180,民建民营(民非),施健萍
200484,向化镇,上海崇明区向化镇敬老院,95,195806,向化镇米新村168号,59447225,202161,公建公营,蔡敬天
200485,向化镇,上海五福原野养老院,100,201211,向化镇齐东714号,59449212,202161,民建民营(民非),徐紫芸
200486,中兴镇,上海崇明区广福养老院,182,195808,中兴镇红星村5队,39440037,202163,公建公营,马菊松
200487,陈家镇,上海崇明区陈家镇敬老院,156,195810,陈家镇铁塔村6队,59437990,202162,公建公营,汤金飞
200488,陈家镇,上海崇明德云养老院,100,201202,陈家镇德云村,59406383,202162,民建民营(民非),董燕
200489,陈家镇,上海崇明爱心养老院,64,200707,陈家镇朝阳村全民15队,59433373,202162,民建民营(民非),顾美娥
200490,陈家镇,上海蘭馨福利院,300,200704,陈家镇裕西村5队,59402078,202162,民建民营(民非),黄菊兰
200491,长兴镇,上海崇明长兴敬老院,92,198311,长兴镇潘园公路1656号,66852959,201913,公建公营,贝兴
200492,横沙乡,上海崇明横沙敬老院,208,198310,横沙乡富民沙路108弄25号,56890845,201914,公建公营,周燕萍
200493,东平镇,上海市崇明东平养老院,50,200305,东平镇黄河路68号,59667116,202178,公建民营(民非),沈志刚
200494,新海镇,上海崇明新海怡心养老院,100,201105,新海镇长春路北首,59655072,202172,公建公营,苏士新
200495,中兴镇,中馨福利院,150,201412,中兴镇兴工路5号,69441512,202163,公建民营(民非),徐圣菊
200496,市属,上海市第一社会福利院,190,199910,徐汇区宛平南路465号,31758006,200032,公建公营,朱小凤
200497,市属,上海市第三社会福利院,600,197904,宝山区漠河路655号,36213332,201999,公建公营,张黎菲
200498,市属,上海市第四社会福利院,320,199911,松江区松汇西路1172号,57822397,201600,公建公营,储蓓林
200499,市属,众仁公寓,402,199812,南翔众仁路1号,59127991,201802,公建公营,景婷
200500,市属,众仁老人乐园,350,199601,平城路160号,69905328,201800,公建公营,景婷